satname,norad_id,inclination_deg,eccentricity,mean_motion_rev_per_day,perigee_km,apogee_km,l1,l2
STARLINK-1423,45710,53.0546,0.0001492,15.06398641,546.1824604543935,548.2489857069613,1 45710U 20035BF  25288.79870509  .00000306  00000+0  39442-4 0  9991,2 45710  53.0546 327.0643 0001492  93.7215 266.3945 15.06398641297310
STARLINK-1433,45711,53.0541,0.0001458,15.06400233,546.2011281112982,548.2205595425585,1 45711U 20035BG  25288.84662287  .00006791  00000+0  47433-3 0  9992,2 45711  53.0541 326.8456 0001458  86.8785 273.2371 15.06400233297313
STARLINK-1434,45712,53.0512,0.0002609,15.13862248,522.6339598881923,526.2357218747647,1 45712U 20035BH  25288.82966044  .00035690  00000+0  19574-2 0  9993,2 45712  53.0512 323.9903 0002609 359.2940   0.8048 15.13862248297362
STARLINK-1465,45731,53.0515,0.0001768,15.06398859,545.9906526978375,548.4394571844641,1 45731U 20038B   25288.68075898  .00009150  00000+0  63237-3 0  9997,2 45731  53.0515 167.5895 0001768  74.7316 285.3869 15.06398859294338
STARLINK-1471,45735,53.0503,0.0003138,15.40030076,443.8790477159873,448.161888943112,1 45735U 20038F   25288.78832433  .00023604  00000+0  59019-3 0  9991,2 45735  53.0503 111.1698 0003138 127.3972 232.7318 15.40030076295148
STARLINK-1474,45738,53.0382,0.0003684,15.64100314,373.33932293831003,378.31564396971953,1 45738U 20038J   25288.69393413  .00079346  00000+0  81934-3 0  9999,2 45738  53.0382  71.8245 0003684 222.6604 137.4124 15.64100314295687
STARLINK-1475,45739,53.0518,0.0003336,15.69786525,357.2600957614486,361.75545235470054,1 45739U 20038K   25288.91672454  .00192887  00000+0  15549-2 0  9994,2 45739  53.0518  38.1075 0003336 279.2983 181.2874 15.69786525  5944
STARLINK-1480,45741,53.0534,0.0001569,15.06397368,546.1330361965374,548.306213105353,1 45741U 20038M   25288.66233120  .00001387  00000+0  11198-3 0  9993,2 45741  53.0534 167.6743 0001569  83.5865 276.5303 15.06397368294349
STARLINK-1500,45744,53.0375,0.0004845,15.26686814,482.39937899754204,489.05046119811686,1 45744U 20038Q   25288.33311108  .00018107  00000+0  69191-3 0  9997,2 45744  53.0375 150.3164 0004845 133.6618 226.4782 15.26686814294551
STARLINK-1504,45746,53.0284,0.0006311,15.37966065,447.81405068687945,456.4352069147526,1 45746U 20038S   25288.79372321  .00115982  00000+0  30228-2 0  9990,2 45746  53.0284 114.1668 0006311 132.3180 227.8358 15.37966065295094
STARLINK-1506,45747,53.0487,0.0004181,15.20754712,500.685624255274,506.4401016806878,1 45747U 20038T   25288.88245881  .00025667  00000+0  11616-2 0  9991,2 45747  53.0487 149.5848 0004181 157.2162 202.9020 15.20754712294614
STARLINK-1464,45751,53.0531,0.0001292,15.06390406,546.3462034898148,548.1357211552795,1 45751U 20038X   25288.86322196  .00012346  00000+0  84651-3 0  9999,2 45751  53.0531 146.7703 0001292  91.1982 268.9155 15.06390406294659
STARLINK-1477,45754,53.0526,0.0001515,15.06394581,546.1789736198707,548.277359265303,1 45754U 20038AA  25288.87795784  .00002879  00000+0  21209-3 0  9990,2 45754  53.0526 146.7024 0001515  86.9460 273.1703 15.06394581294658
STARLINK-1478,45755,53.0507,0.0001482,15.06399153,546.1878168314997,548.2404909135066,1 45755U 20038AB  25288.89637815  .00002004  00000+0  15338-3 0  9999,2 45755  53.0507 146.6213 0001482  87.8206 272.2953 15.06399153294644
STARLINK-1484,45756,53.0168,0.000223,15.57326906,393.8865262749796,396.9075224498456,1 45756U 20038AC  25288.42687964  .00055284  00000+0  74450-3 0  9997,2 45756  53.0168  60.4399 0002230 186.4905 173.6077 15.57326906295813
STARLINK-1493,45759,53.0515,0.0001549,15.06390592,546.1676512952854,548.3131332114053,1 45759U 20038AF  25288.88533374  .00007975  00000+0  55382-3 0  9992,2 45759  53.0515 146.6702 0001549 101.6832 258.4331 15.06390592294648
STARLINK-1494,45760,53.0541,6.2e-05,15.49985553,416.34700708859236,417.18957534470246,1 45760U 20038AG  25288.87450404  .00032506  00000+0  57618-3 0  9997,2 45760  53.0541 136.7213 0000620  90.4562 269.6517 15.49985553294790
STARLINK-1502,45764,53.0535,0.0001176,15.06381828,546.4528255207551,548.0816806010753,1 45764U 20038AL  25287.98963999  .00003459  00000+0  25114-3 0  9991,2 45764  53.0535 150.6911 0001176  78.4983 281.6138 15.06381828294529
STARLINK-1470,45772,53.0502,0.0004862,15.16421259,513.3148559501124,520.0193634663938,1 45772U 20038AU  25288.81905103  .00030148  00000+0  15415-2 0  9993,2 45772  53.0502 120.6186 0004862 144.5118 215.6199 15.16421259295016
STARLINK-1482,45773,53.0532,0.0001513,15.06390733,546.1921505701248,548.2877696382511,1 45773U 20038AV  25288.81712964  .00001171  00000+0  97514-4 0  9991,2 45773  53.0532 126.9772 0001513  95.7340 264.3821 15.06390733294927
STARLINK-1485,45774,53.0418,0.000408,15.93731315,289.1304330239518,294.5731438753255,1 45774U 20038AW  25288.91672454  .00451622  91571-4  12220-2 0  9999,2 45774  53.0418  64.7210 0004080 317.5677 324.6479 15.93731315  6041
STARLINK-1496,45780,53.0531,0.0001221,15.06400007,546.3659514279798,548.0571215405898,1 45780U 20038BC  25288.85030366  .00000432  00000+0  47888-4 0  9990,2 45780  53.0531 126.8273 0001221  91.4102 268.7027 15.06400007294915
STARLINK-1497,45781,53.0405,0.0008604,15.49067632,413.60365577375705,425.30094744396683,1 45781U 20038BD  25288.91672454  .00200790  00000+0  35522-2 0  9997,2 45781  53.0405  76.9188 0008604 175.5979 214.6217 15.49067632  5904
STARLINK-1510,45784,53.0336,0.0003935,15.64180624,372.9387074332262,378.2538955414966,1 45784U 20038BG  25288.91672454  .00042359  00000+0  44060-3 0  9993,2 45784  53.0336  54.8440 0003935 122.8687  14.6747 15.64180624  5886
STARLINK-1513,45786,53.0536,0.0002101,15.06409134,545.728553834836,548.6385735356971,1 45786U 20038BJ  25288.81344126 -.00004001  00000+0 -24976-3 0  9994,2 45786  53.0536 126.9949 0002101  88.1892 271.9338 15.06409134294926
STARLINK-1522,46027,53.0539,0.0001409,15.0640108,546.2324667503754,548.1840290412329,1 46027U 20055A   25288.66139359 -.00000272  00000+0  62252-6 0  9992,2 46027  53.0539  57.6734 0001409  93.1670 266.9480 15.06401080287027
STARLINK-1523,46028,53.0569,0.0001323,15.06399919,546.2955825445624,548.128029838681,1 46028U 20055B   25288.74248463  .00001334  00000+0  10844-3 0  9995,2 46028  53.0569  57.3118 0001323  88.3660 271.7481 15.06399919287059
STARLINK-1526,46029,53.0551,0.0001422,15.06415665,546.1787696476631,548.1483251233394,1 46029U 20055C   25288.73510027 -.00006351  00000+0 -40770-3 0  9990,2 46029  53.0551  57.3406 0001422 103.7672 256.3475 15.06415665287044
